NORAD_CAT_ID,OBJECT_NAME,OBJECT_TYPE,EPOCH,MEAN_MOTION,ECCENTRICITY,INCLINATION,RA_OF_ASC_NODE,ARG_OF_PERICENTER,MEAN_ANOMALY,BSTAR,MEAN_MOTION_DOT,MEAN_MOTION_DDOT,TLE_LINE0,TLE_LINE1,TLE_LINE2,SEMIMAJOR_AXIS,PERIOD,APOGEE,PERIGEE,DECAYED
53851.0,STARLINK-4755,PAYLOAD,2024-03-11 02:34:45,15.08804942,0.000175,53.2165,324.6288,81.5923,278.5268,0.00094588,0.00014783,0.0,0 STARLINK-4755,1 53851U 22114AK  24071.10747067  .00014783  00000-0  94588-3 0  9998,2 53851  53.2165 324.6288 0001750  81.5923 278.5268 15.08804942 82447,6917.988,95.44,541.063,538.642,0.0
53851.0,STARLINK-4755,PAYLOAD,2024-03-11 16:53:10,15.08867589,0.0001315,53.2159,321.9524,77.5642,282.5497,-0.0007753,-0.00012615,0.0,0 STARLINK-4755,1 53851U 22114AK  24071.70359607 -.00012615  00000-0 -77530-3 0  9995,2 53851  53.2159 321.9524 0001315  77.5642 282.5497 15.08867589 82538,6917.796,95.436,540.571,538.751,0.0
53851.0,STARLINK-4755,PAYLOAD,2024-03-12 16:43:59,15.08838998,0.0001659,53.2156,317.492,89.0597,271.0585,0.00017957,2.571e-05,0.0,0 STARLINK-4755,1 53851U 22114AK  24072.69721579  .00002571  00000-0  17957-3 0  9990,2 53851  53.2156 317.4920 0001659  89.0597 271.0585 15.08838998 82682,6917.883,95.438,540.896,538.601,0.0
53851.0,STARLINK-4755,PAYLOAD,2024-03-12 23:05:32,15.08835753,0.0001551,53.2161,316.3016,90.4771,269.6399,0.00025999,3.852e-05,0.0,0 STARLINK-4755,1 53851U 22114AK  24072.96217817  .00003852  00000-0  25999-3 0  9993,2 53851  53.2161 316.3016 0001551  90.4771 269.6399 15.08835753 83260,6917.893,95.438,540.831,538.685,0.0
53851.0,STARLINK-4755,PAYLOAD,2024-03-14 08:28:38,15.08831166,6.42e-05,53.2163,310.0583,70.2673,289.8389,-7.4068e-06,-4.05e-06,0.0,0 STARLINK-4755,1 53851U 22114AK  24074.35322467 -.00000405  00000-0 -74068-5 0  9992,2 53851  53.2163 310.0583 0000642  70.2673 289.8389 15.08831166 82939,6917.907,95.438,540.217,539.328,0.0
53851.0,STARLINK-4755,PAYLOAD,2024-03-14 21:11:44,15.08837512,4.09e-05,53.2135,307.678,104.2832,255.8205,0.00020533,2.982e-05,0.0,0 STARLINK-4755,1 53851U 22114AK  24074.88315200  .00002982  00000-0  20533-3 0  9993,2 53851  53.2135 307.6780 0000409 104.2832 255.8205 15.08837512 83555,6917.888,95.438,540.036,539.47,0.0
53851.0,STARLINK-4755,PAYLOAD,2024-03-15 00:22:30,15.08839543,5.88e-05,53.2133,307.0837,113.9898,246.1156,0.00023478,3.451e-05,0.0,0 STARLINK-4755,1 53851U 22114AK  24075.01563193  .00003451  00000-0  23478-3 0  9998,2 53851  53.2133 307.0837 0000588 113.9898 246.1156 15.08839543 83034,6917.882,95.438,540.154,539.34,0.0
53851.0,STARLINK-4755,PAYLOAD,2024-03-15 22:37:53,15.08695551,8.85e-05,53.2155,302.9176,168.6737,191.4275,0.0023629,0.00037369,0.0,0 STARLINK-4755,1 53851U 22114AK  24075.94297848  .00037369  00000-0  23629-2 0  9993,2 53851  53.2155 302.9176 0000885 168.6737 191.4275 15.08695551 83715,6918.322,95.447,540.799,539.575,0.0
53851.0,STARLINK-4755,PAYLOAD,2024-03-16 00:13:19,15.08760209,0.0001722,53.2148,302.6212,106.2738,253.8444,0.0027028,0.00042895,0.0,0 STARLINK-4755,1 53851U 22114AK  24076.00925550  .00042895  00000-0  27028-2 0  9996,2 53851  53.2148 302.6212 0001722 106.2738 253.8444 15.08760209 83180,6918.124,95.443,541.181,538.798,0.0
53851.0,STARLINK-4755,PAYLOAD,2024-03-16 14:31:47,15.08801475,0.0001585,53.2144,299.9468,113.6774,246.4385,0.0018154,0.00028692,0.0,0 STARLINK-4755,1 53851U 22114AK  24076.60541556  .00028692  00000-0  18154-2 0  9991,2 53851  53.2144 299.9468 0001585 113.6774 246.4385 15.08801475 83819,6917.998,95.44,540.96,538.767,0.0
53851.0,STARLINK-4755,PAYLOAD,2024-03-16 20:53:17,15.08856113,0.0001131,53.2156,298.7544,112.2772,247.834,0.00010065,1.315e-05,0.0,0 STARLINK-4755,1 53851U 22114AK  24076.87034467  .00001315  00000-0  10065-3 0  9995,2 53851  53.2156 298.7544 0001131 112.2772 247.8340 15.08856113 83314,6917.831,95.437,540.479,538.914,0.0
53851.0,STARLINK-4755,PAYLOAD,2024-03-16 22:28:40,15.08855478,0.000117,53.2162,298.4577,107.1074,253.0047,9.4537e-05,1.218e-05,0.0,0 STARLINK-4755,1 53851U 22114AK  24076.93658486  .00001218  00000-0  94537-4 0  9994,2 53851  53.2162 298.4577 0001170 107.1074 253.0047 15.08855478 83861,6917.833,95.437,540.507,538.889,0.0
53851.0,STARLINK-4755,PAYLOAD,2024-03-17 20:44:04,15.08851045,0.0001301,53.2166,294.2951,97.4564,262.6576,2.9656e-06,-2.41e-06,0.0,0 STARLINK-4755,1 53851U 22114AK  24077.86394163 -.00000241  00000-0  29656-5 0  9993,2 53851  53.2166 294.2951 0001301  97.4564 262.6576 15.08851045 83461,6917.847,95.437,540.612,538.812,0.0
53851.0,STARLINK-4755,PAYLOAD,2024-03-18 20:34:51,15.08841032,0.0001434,53.2166,289.8367,82.2954,277.8201,2.773e-05,1.53e-06,0.0,0 STARLINK-4755,1 53851U 22114AK  24078.85754423  .00000153  00000-0  27730-4 0  9993,2 53851  53.2166 289.8367 0001434  82.2954 277.8201 15.08841032 83619,6917.877,95.437,540.734,538.75,0.0
53851.0,STARLINK-4755,PAYLOAD,2024-03-18 23:45:37,15.0884174,0.0001389,53.2164,289.2416,86.3061,273.809,2.8053e-05,1.59e-06,0.0,0 STARLINK-4755,1 53851U 22114AK  24078.99002313  .00000159  00000-0  28053-4 0  9997,2 53851  53.2164 289.2416 0001389  86.3061 273.8090 15.08841740 84179,6917.875,95.437,540.701,538.779,0.0
53851.0,STARLINK-4755,PAYLOAD,2024-03-20 13:54:53,15.08837998,0.0001291,53.2165,282.1041,95.2627,264.8512,8.0848e-05,9.99e-06,0.0,0 STARLINK-4755,1 53851U 22114AK  24080.57978563  .00000999  00000-0  80848-4 0  9995,2 53851  53.2165 282.1041 0001291  95.2627 264.8512 15.08837998 84411,6917.887,95.438,540.645,538.858,0.0
53851.0,STARLINK-4755,PAYLOAD,2024-03-20 20:16:26,15.0883669,0.0001209,53.2165,280.9147,89.6308,270.4823,6.4487e-05,7.39e-06,0.0,0 STARLINK-4755,1 53851U 22114AK  24080.84474722  .00000739  00000-0  64487-4 0  9996,2 53851  53.2165 280.9147 0001209  89.6308 270.4823 15.08836690 83916,6917.891,95.438,540.592,538.919,0.0
53851.0,STARLINK-4755,PAYLOAD,2024-03-21 13:45:40,15.08839075,0.0001183,53.2165,277.6449,86.2176,273.8951,7.3682e-05,8.85e-06,0.0,0 STARLINK-4755,1 53851U 22114AK  24081.57338778  .00000885  00000-0  73682-4 0  9996,2 53851  53.2165 277.6449 0001183  86.2176 273.8951 15.08839075 84562,6917.883,95.438,540.567,538.93,0.0
53851.0,STARLINK-4755,PAYLOAD,2024-03-21 18:31:50,15.08836887,0.0001138,53.2165,276.7525,89.1461,270.9662,4.5025e-05,4.29e-06,0.0,0 STARLINK-4755,1 53851U 22114AK  24081.77210990  .00000429  00000-0  45025-4 0  9997,2 53851  53.2165 276.7525 0001138  89.1461 270.9662 15.08836887 84594,6917.89,95.438,540.542,538.968,0.0
53851.0,STARLINK-4755,PAYLOAD,2024-03-21 23:17:59,15.08840507,0.0001134,53.2161,275.857,89.9641,270.1481,6.9692e-05,8.22e-06,0.0,0 STARLINK-4755,1 53851U 22114AK  24081.97082671  .00000822  00000-0  69692-4 0  9995,2 53851  53.2161 275.8570 0001134  89.9641 270.1481 15.08840507 84083,6917.879,95.438,540.528,538.959,0.0
53851.0,STARLINK-4755,PAYLOAD,2024-03-22 19:58:00,15.08836539,0.0001085,53.2163,271.9882,84.5124,275.5992,4.986e-05,5.06e-06,0.0,0 STARLINK-4755,1 53851U 22114AK  24082.83195181  .00000506  00000-0  49860-4 0  9996,2 53851  53.2163 271.9882 0001085  84.5124 275.5992 15.08836539 84211,6917.891,95.438,540.507,539.005,0.0
53851.0,STARLINK-4755,PAYLOAD,2024-03-23 19:48:47,15.08842714,0.0001273,53.217,267.5327,92.8321,267.2817,0.00011676,1.571e-05,0.0,0 STARLINK-4755,1 53851U 22114AK  24083.82554925  .00001571  00000-0  11676-3 0  9997,2 53851  53.2170 267.5327 0001273  92.8321 267.2817 15.08842714 84906,6917.872,95.437,540.618,538.856,0.0
53851.0,STARLINK-4755,PAYLOAD,2024-03-24 05:21:05,15.08856896,0.0001343,53.2176,265.7461,70.2499,289.8638,0.00016921,2.407e-05,0.0,0 STARLINK-4755,1 53851U 22114AK  24084.22297759  .00002407  00000-0  16921-3 0  9998,2 53851  53.2176 265.7461 0001343  70.2499 289.8638 15.08856896 84429,6917.829,95.436,540.623,538.765,0.0
53851.0,STARLINK-4755,PAYLOAD,2024-03-24 11:42:39,15.08840368,0.0002059,53.2162,264.562,72.4468,287.6749,0.00013311,1.831e-05,0.0,0 STARLINK-4755,1 53851U 22114AK  24084.48795362  .00001831  00000-0  13311-3 0  9999,2 53851  53.2162 264.5620 0002059  72.4468 287.6749 15.08840368 84463,6917.879,95.438,541.169,538.32,0.0
53851.0,STARLINK-4755,PAYLOAD,2024-03-24 19:39:34,15.08842559,0.0001267,53.2149,263.0751,74.6007,285.5125,0.00017211,2.452e-05,0.0,0 STARLINK-4755,1 53851U 22114AK  24084.81915320  .00002452  00000-0  17211-3 0  9997,2 53851  53.2149 263.0751 0001267  74.6007 285.5125 15.08842559 85055,6917.873,95.437,540.614,538.861,0.0
53851.0,STARLINK-4755,PAYLOAD,2024-03-25 13:08:49,15.08835694,0.0001238,53.2146,259.801,82.0936,278.0197,-4.5894e-05,-1.018e-05,0.0,0 STARLINK-4755,1 53851U 22114AK  24085.54779577 -.00001018  00000-0 -45894-4 0  9998,2 53851  53.2146 259.8010 0001238  82.0936 278.0197 15.08835694 84625,6917.894,95.438,540.615,538.902,0.0
53851.0,STARLINK-4755,PAYLOAD,2024-03-25 19:30:23,15.08806977,0.0001348,53.2151,258.612,86.4203,273.6943,-0.00040749,-6.761e-05,0.0,0 STARLINK-4755,1 53851U 22114AK  24085.81276804 -.00006761  00000-0 -40749-3 0  9996,2 53851  53.2151 258.6120 0001348  86.4203 273.6943 15.08806977 84663,6917.981,95.44,540.779,538.914,0.0
53851.0,STARLINK-4755,PAYLOAD,2024-03-26 05:02:42,15.08827268,0.000138,53.2148,256.8288,87.0266,273.0884,0.0011882,0.00018666,0.0,0 STARLINK-4755,1 53851U 22114AK  24086.21021508  .00018666  00000-0  11882-2 0  9990,2 53851  53.2148 256.8288 0001380  87.0266 273.0884 15.08827268 84727,6917.919,95.438,540.739,538.83,0.0
53851.0,STARLINK-4755,PAYLOAD,2024-03-26 14:35:01,15.08852166,0.000132,53.2149,255.0444,89.7826,270.3318,0.0026875,0.00042758,0.0,0 STARLINK-4755,1 53851U 22114AK  24086.60765749  .00042758  00000-0  26875-2 0  9992,2 53851  53.2149 255.0444 0001320  89.7826 270.3318 15.08852166 85322,6917.843,95.437,540.621,538.795,0.0
53851.0,STARLINK-4755,PAYLOAD,2024-03-26 20:56:33,15.08873162,0.0001274,53.2153,253.8542,92.5563,267.5575,0.0024342,0.00038701,0.0,0 STARLINK-4755,1 53851U 22114AK  24086.87261254  .00038701  00000-0  24342-2 0  9993,2 53851  53.2153 253.8542 0001274  92.5563 267.5575 15.08873162 84826,6917.779,95.435,540.525,538.763,0.0
